[{"OBJECT_NAME":"FOURIER","OBJECT_ID":"2025-185B","EPOCH":"2026-03-09T17:14:49.271712","MEAN_MOTION":14.77345087,"ECCENTRICITY":0.00115317,"INCLINATION":97.9632,"RA_OF_ASC_NODE":153.1639,"ARG_OF_PERICENTER":59.1676,"MEAN_ANOMALY":301.0667,"EPHEMERIS_TYPE":0,"CLASSIFICATION_TYPE":"U","NORAD_CAT_ID":65298,"ELEMENT_SET_NO":999,"REV_AT_EPOCH":2914,"BSTAR":0.0018015505,"MEAN_MOTION_DOT":0.00012782,"MEAN_MOTION_DDOT":0},{"OBJECT_NAME":"DELTA 1 DEB","OBJECT_ID":"1972-058JN","EPOCH":"2026-02-09T17:51:56.279232","MEAN_MOTION":14.72796539,"ECCENTRICITY":0.00140965,"INCLINATION":97.7867,"RA_OF_ASC_NODE":27.078,"ARG_OF_PERICENTER":22.2582,"MEAN_ANOMALY":154.7468,"EPHEMERIS_TYPE":0,"CLASSIFICATION_TYPE":"U","NORAD_CAT_ID":42555,"ELEMENT_SET_NO":999,"REV_AT_EPOCH":65561,"BSTAR":0.00026282201,"MEAN_MOTION_DOT":1.635e-5,"MEAN_MOTION_DDOT":0}]
